$$SOE
2460154.500000000, A.D. 2023-Jul-29 00:00:00.0000, 1.915744793392804E+08, 2.279797017300740E+08, 1.332172694708110E+07,
2460161.500000000, A.D. 2023-Aug-05 00:00:00.0000, 1.814646329633282E+08, 2.369707626450811E+08, 1.323167212053534E+07,
2460168.500000000, A.D. 2023-Aug-12 00:00:00.0000, 1.710246148928428E+08, 2.455305957081896E+08, 1.311752539242360E+07,
2460175.500000000, A.D. 2023-Aug-19 00:00:00.0000, 1.602757404837979E+08, 2.536469524582209E+08, 1.297967320504306E+07,
2460182.500000000, A.D. 2023-Aug-26 00:00:00.0000, 1.492397579039469E+08, 2.613088687429032E+08, 1.281855454538767E+07,
2460189.500000000, A.D. 2023-Sep-02 00:00:00.0000, 1.379387528068824E+08, 2.685066710865568E+08, 1.263465780132675E+07,
2460196.500000000, A.D. 2023-Sep-09 00:00:00.0000, 1.263950548634271E+08, 2.752319746144789E+08, 1.242851742862280E+07,
2460203.500000000, A.D. 2023-Sep-16 00:00:00.0000, 1.146311471216074E+08, 2.814776729400968E+08, 1.220071045049503E+07,
2460210.500000000, A.D. 2023-Sep-23 00:00:00.0000, 1.026695793265860E+08, 2.872379208476092E+08, 1.195185281629366E+07,
2460217.500000000, A.D. 2023-Sep-30 00:00:00.0000, 9.053288548611073E+07, 2.925081115714576E+08, 1.168259578710341E+07,
2460224.500000000, A.D. 2023-Oct-07 00:00:00.0000, 7.824350385396676E+07, 2.972848487733388E+08, 1.139362255602667E+07,
2460231.500000000, A.D. 2023-Oct-14 00:00:00.0000, 6.582370078350413E+07, 3.015659105806680E+08, 1.108564477277869E+07,
2460238.500000000, A.D. 2023-Oct-21 00:00:00.0000, 5.329550200885744E+07, 3.053502080058367E+08, 1.075939884023683E+07,
2460245.500000000, A.D. 2023-Oct-28 00:00:00.0000, 4.068063017569363E+07, 3.086377407046821E+08, 1.041564232464771E+07,
2460252.500000000, A.D. 2023-Nov-04 00:00:00.0000, 2.800044751543723E+07, 3.114295499746386E+08, 1.005515055432077E+07,
2460259.500000000, A.D. 2023-Nov-11 00:00:00.0000, 1.527590389140976E+07, 3.137276690450436E+08, 9.678713362621829E+06,
2460266.500000000, A.D. 2023-Nov-18 00:00:00.0000, 2.527490405385138E+06, 3.155350712292619E+08, 9.287131969396561E+06,
2460273.500000000, A.D. 2023-Nov-25 00:00:00.0000, -1.022480145835143E+07, 3.168556165742393E+08, 8.881216013279170E+06,
2460280.500000000, A.D. 2023-Dec-02 00:00:00.0000, -2.296151526671796E+07, 3.176939975747052E+08, 8.461780744722247E+06,
2460287.500000000, A.D. 2023-Dec-09 00:00:00.0000, -3.566375975554635E+07, 3.180556844199870E+08, 8.029644376396745E+06,
2460294.500000000, A.D. 2023-Dec-16 00:00:00.0000, -4.831323356702354E+07, 3.179468702540154E+08, 7.585625570283711E+06,
2460301.500000000, A.D. 2023-Dec-23 00:00:00.0000, -6.089224451737569E+07, 3.173744175482433E+08, 7.130541087528735E+06,
2460308.500000000, A.D. 2023-Dec-30 00:00:00.0000, -7.338372501957826E+07, 3.163458069998473E+08, 6.665203808999076E+06,
2460315.500000000, A.D. 2024-Jan-06 00:00:00.0000, -8.577124572954510E+07, 3.148690868999862E+08, 6.190421093198434E+06,
2460322.500000000, A.D. 2024-Jan-13 00:00:00.0000, -9.803902455902746E+07, 3.129528214088578E+08, 5.706993029762968E+06,
2460329.500000000, A.D. 2024-Jan-20 00:00:00.0000, -1.101719301654903E+08, 3.106060410399983E+08, 5.215710723932564E+06,
2460336.500000000, A.D. 2024-Jan-27 00:00:00.0000, -1.221554822722354E+08, 3.078381961903169E+08, 4.717354844716713E+06,
2460343.500000000, A.D. 2024-Feb-03 00:00:00.0000, -1.339758495655560E+08, 3.046591129057326E+08, 4.212694391688675E+06,
2460350.500000000, A.D. 2024-Feb-10 00:00:00.0000, -1.456198452029662E+08, 3.010789506966775E+08, 3.702485623904854E+06,
2460357.500000000, A.D. 2024-Feb-17 00:00:00.0000, -1.570749200912772E+08, 2.971081624864038E+08, 3.187471130760565E+06,
2460364.500000000, A.D. 2024-Feb-24 00:00:00.0000, -1.683291541799800E+08, 2.927574567512168E+08, 2.668379033905938E+06,
2460371.500000000, A.D. 2024-Mar-02 00:00:00.0000, -1.793712460059006E+08, 2.880377618360747E+08, 2.145922305726960E+06,
2460378.500000000, A.D. 2024-Mar-09 00:00:00.0000, -1.901905005995517E+08, 2.829601923741678E+08, 1.620798177294016E+06,
2460385.500000000, A.D. 2024-Mar-16 00:00:00.0000, -2.007768155909041E+08, 2.775360179787166E+08, 1.093687606556088E+06,
2460392.500000000, A.D. 2024-Mar-23 00:00:00.0000, -2.111206658358694E+08, 2.717766352709863E+08, 5.652548979924470E+05,
2460399.500000000, A.D. 2024-Mar-30 00:00:00.0000, -2.212130890071628E+08, 2.656935431633042E+08, 3.614766802741587E+04,
2460406.500000000, A.D. 2024-Apr-06 00:00:00.0000, -2.310456720726312E+08, 2.592983179651649E+08, -4.930031512003094E+05,
2460413.500000000, A.D. 2024-Apr-13 00:00:00.0000, -2.406105352685087E+08, 2.526025890648743E+08, -1.021583534135669E+06,
2460420.500000000, A.D. 2024-Apr-20 00:00:00.0000, -2.499003146741176E+08, 2.456180177763211E+08, -1.548996511386082E+06,
2460427.500000000, A.D. 2024-Apr-27 00:00:00.0000, -2.589081450428864E+08, 2.383562787078087E+08, -2.074662161196530E+06,
2460434.500000000, A.D. 2024-May-04 00:00:00.0000, -2.676276429185211E+08, 2.308290428610344E+08, -2.598017515197709E+06,
2460441.500000000, A.D. 2024-May-11 00:00:00.0000, -2.760528899014322E+08, 2.230479622650387E+08, -3.118516414668560E+06,
2460448.500000000, A.D. 2024-May-18 00:00:00.0000, -2.841784160752764E+08, 2.150246560731824E+08, -3.635629328740358E+06,
2460455.500000000, A.D. 2024-May-25 00:00:00.0000, -2.919991836490980E+08, 2.067706980234610E+08, -4.148843142670542E+06,
2460462.500000000, A.D. 2024-Jun-01 00:00:00.0000, -2.995105708243676E+08, 1.982976051135315E+08, -4.657660931203634E+06,
2460469.500000000, A.D. 2024-Jun-08 00:00:00.0000, -3.067083556994759E+08, 1.896168273780489E+08, -5.161601745875292E+06,
2460476.500000000, A.D. 2024-Jun-15 00:00:00.0000, -3.135886998618714E+08, 1.807397392258554E+08, -5.660200412303567E+06,
2460483.500000000, A.D. 2024-Jun-22 00:00:00.0000, -3.201481327159466E+08, 1.716776334270082E+08, -6.153007152937807E+06,
2460490.500000000, A.D. 2024-Jun-29 00:00:00.0000, -3.263835387071320E+08, 1.624417158491473E+08, -6.639586993355513E+06,
2460497.500000000, A.D. 2024-Jul-06 00:00:00.0000, -3.322921448262267E+08, 1.530430983991962E+08, -7.119519400113806E+06,
2460504.500000000, A.D. 2024-Jul-13 00:00:00.0000, -3.378715064606279E+08, 1.434927929204269E+08, -7.592398100299537E+06,
2460511.500000000, A.D. 2024-Jul-20 00:00:00.0000, -3.431194935938970E+08, 1.338017071205995E+08, -8.057830809229389E+06,
2460518.500000000, A.D. 2024-Jul-27 00:00:00.0000, -3.480342780228834E+08, 1.239806415080116E+08, -8.515438887380816E+06,
2460525.500000000, A.D. 2024-Aug-03 00:00:00.0000, -3.526143213220589E+08, 1.140402868998882E+08, -8.964856983945832E+06,
2460532.500000000, A.D. 2024-Aug-10 00:00:00.0000, -3.568583633866582E+08, 1.039912224361383E+08, -9.405732683501251E+06,
2460539.500000000, A.D. 2024-Aug-17 00:00:00.0000, -3.607654115066533E+08, 9.384391405849645E+07, -9.837726159523163E+06,
2460546.500000000, A.D. 2024-Aug-24 00:00:00.0000, -3.643347299467046E+08, 8.360871337674041E+07, -1.026050984104019E+07,
2460553.500000000, A.D. 2024-Aug-31 00:00:00.0000, -3.675658299195060E+08, 7.329585681245874E+07, -1.067376811043219E+07,
2460560.500000000, A.D. 2024-Sep-07 00:00:00.0000, -3.704584595857174E+08, 6.291546510496671E+07, -1.107719705770880E+07,
2460567.500000000, A.D. 2024-Sep-14 00:00:00.0000, -3.730125939883084E+08, 5.247754413616538E+07, -1.147050421919071E+07,
2460574.500000000, A.D. 2024-Sep-21 00:00:00.0000, -3.752284269405056E+08, 4.199198744818860E+07, -1.185340808189078E+07,
2460581.500000000, A.D. 2024-Sep-28 00:00:00.0000, -3.771063653469203E+08, 3.146857718935605E+07, -1.222563757385780E+07,
2460588.500000000, A.D. 2024-Oct-05 00:00:00.0000, -3.786470222784012E+08, 2.091698345814349E+07, -1.258693187767208E+07,
2460595.500000000, A.D. 2024-Oct-12 00:00:00.0000, -3.798512091451544E+08, 1.034676499422493E+07, -1.293704029025582E+07,
2460602.500000000, A.D. 2024-Oct-19 00:00:00.0000, -3.807199287047468E+08, -2.326290870610364E+05, -1.327572199069456E+07,
2460609.500000000, A.D. 2024-Oct-26 00:00:00.0000, -3.812543689282355E+08, -1.081185734773477E+07, -1.360274577945321E+07,
2460616.500000000, A.D. 2024-Nov-02 00:00:00.0000, -3.814558974576107E+08, -2.138168404090970E+07, -1.391788982532462E+07,
2460623.500000000, A.D. 2024-Nov-09 00:00:00.0000, -3.813260565464110E+08, -3.193297708735140E+07, -1.422094142748180E+07,
2460630.500000000, A.D. 2024-Nov-16 00:00:00.0000, -3.808665584455470E+08, -4.245670603640892E+07, -1.451169679508103E+07,
2460637.500000000, A.D. 2024-Nov-23 00:00:00.0000, -3.800792811757177E+08, -5.294394008177997E+07, -1.478996085289159E+07,
2460644.500000000, A.D. 2024-Nov-30 00:00:00.0000, -3.789662644668295E+08, -6.338584619390337E+07, -1.505554709560976E+07,
2460651.500000000, A.D. 2024-Dec-07 00:00:00.0000, -3.775297054337412E+08, -7.377368696610081E+07, -1.530827749493596E+07,
2460658.500000000, A.D. 2024-Dec-14 00:00:00.0000, -3.757719546653664E+08, -8.409881696732581E+07, -1.554798229612939E+07,
2460665.500000000, A.D. 2024-Dec-21 00:00:00.0000, -3.736955150350552E+08, -9.435267885931405E+07, -1.577449959284293E+07,
2460672.500000000, A.D. 2024-Dec-28 00:00:00.0000, -3.713030412526296E+08, -1.045268022619261E+08, -1.598767510402866E+07,
2460679.500000000, A.D. 2025-Jan-04 00:00:00.0000, -3.685973375537812E+08, -1.146128030035214E+08, -1.618736219690298E+07,
2460686.500000000, A.D. 2025-Jan-11 00:00:00.0000, -3.655813553368257E+08, -1.246023811079001E+08, -1.637342185257767E+07,
2460693.500000000, A.D. 2025-Jan-18 00:00:00.0000, -3.622581916519638E+08, -1.344873184501615E+08, -1.654572256488418E+07,
2460700.500000000, A.D. 2025-Jan-25 00:00:00.0000, -3.586310882913139E+08, -1.442594765707429E+08, -1.670414023362281E+07,
2460707.500000000, A.D. 2025-Feb-01 00:00:00.0000, -3.547034312841142E+08, -1.539107946909872E+08, -1.684855807222012E+07,
2460714.500000000, A.D. 2025-Feb-08 00:00:00.0000, -3.504787507321850E+08, -1.634332879223968E+08, -1.697886653343893E+07,
2460721.500000000, A.D. 2025-Feb-15 00:00:00.0000, -3.459607209497361E+08, -1.728190457012577E+08, -1.709496325724290E+07,
$$EOE